1 36508U 93036PJ  24001.50000000  .00000400  00000-0  14000-3 0  9997
2 36508  74.0400  80.0000 0100000 150.0000 210.0000 14.12000000750000
